0 GLOBALSTAR M046
1 25651U 99012C   13282.80546671 -.00000231  00000-0 -15754-2 0  2482
2 25651 052.0037 118.8572 0002353 015.4624 046.6167 12.09297733667579
0 GLOBALSTAR M046
1 25651U 99012C   13283.98399111 -.00000222  00000-0 -14766-2 0  2490
2 25651 052.0039 115.6109 0002347 017.7449 137.3621 12.09297577667710
0 GLOBALSTAR M046
1 25651U 99012C   13286.51440475 -.00000200  00000-0 -12240-2 0  2516
2 25651 052.0034 108.6402 0002363 022.6548 353.5910 12.09297321668021
0 GLOBALSTAR M046
1 25651U 99012C   13287.76568185 -.00000203  00000-0 -12565-2 0  2527
2 25651 052.0036 105.1933 0002371 024.7397 041.4041 12.09297101668178
0 GLOBALSTAR M046
1 25651U 99012C   13288.85875957 -.00000203  00000-0 -12608-2 0  2535
2 25651 052.0038 102.1822 0002393 026.5017 120.5068 12.09296765668305
0 GLOBALSTAR M046
1 25651U 99012C   13290.58079145 -.00000173  00000-0 -93220-3 0  2540
2 25651 052.0041 097.4386 0002353 029.1377 058.1245 12.09296251668510
0 GLOBALSTAR M046
1 25651U 99012C   13291.74641322 -.00000133  00000-0 -49140-3 0  2550
2 25651 052.0043 094.2279 0002302 030.8195 093.2697 12.09295853668652
0 GLOBALSTAR M046
1 25651U 99012C   13292.82621965 -.00000096  00000-0 -85859-4 0  2568
2 25651 052.0045 091.2535 0002276 032.2972 114.8515 12.09295519668787
0 GLOBALSTAR M046
1 25651U 99012C   13294.05661830 -.00000068  00000-0  22801-3 0  2576
2 25651 052.0047 087.8645 0002305 034.3819 071.7231 12.09295237668938
0 GLOBALSTAR M046
1 25651U 99012C   13295.45423324 -.00000038  00000-0  55733-3 0  2583
2 25651 052.0050 084.0148 0002316 036.7165 036.6479 12.09295051669109
